<?xml version="1.0" encoding="UTF-8"?>
<kml xmlns="http://www.opengis.net/kml/2.2">
  <Document>
    <name>Пробежка вокруг Эйфелевой башни — Париж</name>
    <Style id="runStyle">
      <LineStyle><color>ff00aaff</color><width>4</width></LineStyle>
    </Style>
    <Placemark>
      <name>Eiffel Tower Run</name>
      <styleUrl>#runStyle</styleUrl>
      <LineString>
        <extrude>1</extrude>
        <tessellate>1</tessellate>
        <altitudeMode>absolute</altitudeMode>
        <coordinates>2.295672,48.860522,36.1 2.295668,48.860517,36.8 2.295665,48.860512,37.0 2.295661,48.860508,36.8 2.295658,48.860503,36.7 2.295654,48.860498,36.6 2.295650,48.860493,36.7 2.295647,48.860489,37.3 2.295643,48.860484,37.2 2.295640,48.860479,36.7 2.295636,48.860475,36.7 2.295633,48.860470,37.2 2.295629,48.860465,37.2 2.295711,48.860414,36.8 2.295793,48.860363,36.9 2.295875,48.860312,37.5 2.295957,48.860261,37.0 2.296040,48.860210,37.6 2.296122,48.860159,37.4 2.296204,48.860109,37.5 2.296286,48.860058,37.1 2.296368,48.860007,37.2 2.296450,48.859956,37.9 2.296532,48.859905,37.7 2.296614,48.859854,37.6 2.296696,48.859803,38.1 2.296779,48.859752,38.0 2.296861,48.859701,37.4 2.296943,48.859650,37.9 2.297025,48.859599,38.2 2.297107,48.859548,37.7 2.297189,48.859497,37.7 2.297271,48.859446,37.9 2.297353,48.859395,38.3 2.297435,48.859344,38.2 2.297517,48.859293,37.7 2.297598,48.859240,38.1 2.297678,48.859187,38.0 2.297759,48.859134,38.4 2.297839,48.859082,38.1 2.297920,48.859029,38.2 2.298000,48.858976,38.3 2.298081,48.858923,38.7 2.298161,48.858870,38.6 2.298242,48.858817,38.9 2.298322,48.858764,38.6 2.298403,48.858711,38.4 2.298483,48.858658,38.3 2.298564,48.858605,39.0 2.298644,48.858552,38.6 2.298725,48.858499,38.6 2.298805,48.858446,38.9 2.298886,48.858393,39.2 2.298966,48.858340,38.8 2.299046,48.858287,38.9 2.299127,48.858234,38.7 2.299207,48.858181,39.1 2.299288,48.858128,38.6 2.299368,48.858075,38.9 2.299449,48.858023,39.0 2.299529,48.857970,38.7 2.299610,48.857917,39.4 2.299690,48.857864,39.1 2.299771,48.857811,39.4 2.299851,48.857758,39.1 2.299932,48.857705,39.5 2.300012,48.857652,39.5 2.300093,48.857599,39.7 2.299984,48.857578,39.3 2.299876,48.857557,39.3 2.299767,48.857535,39.4 2.299658,48.857514,39.4 2.299550,48.857493,39.2 2.299441,48.857472,39.7 2.299333,48.857451,39.4 2.299224,48.857429,39.9 2.299115,48.857408,39.2 2.299007,48.857387,39.3 2.298898,48.857366,39.2 2.298790,48.857345,39.3 2.298681,48.857323,39.2 2.298572,48.857302,39.5 2.298464,48.857281,39.6 2.298355,48.857260,39.8 2.298247,48.857239,39.6 2.298138,48.857218,39.4 2.298029,48.857196,39.5 2.297921,48.857175,40.1 2.297812,48.857154,39.9 2.297703,48.857133,39.5 2.297595,48.857112,39.7 2.297486,48.857091,39.4 2.297378,48.857070,40.1 2.297269,48.857048,39.4 2.297160,48.857027,39.4 2.297052,48.857006,39.4 2.296943,48.856985,39.7 2.296835,48.856964,39.7 2.296726,48.856943,39.5 2.296617,48.856921,39.4 2.296509,48.856900,39.3 2.296400,48.856879,39.3 2.296292,48.856858,39.4 2.296183,48.856837,39.5 2.296074,48.856815,39.3 2.295966,48.856794,40.1 2.295857,48.856773,40.0 2.295749,48.856752,39.8 2.295640,48.856731,39.9 2.295531,48.856710,39.9 2.295423,48.856688,39.4 2.295314,48.856667,39.6 2.295206,48.856646,39.6 2.295097,48.856625,39.5 2.294988,48.856604,39.9 2.294880,48.856582,39.3 2.294771,48.856561,39.6 2.294663,48.856540,39.8 2.294554,48.856519,39.6 2.294445,48.856498,39.3 2.294337,48.856476,39.9 2.294228,48.856455,39.4 2.294120,48.856434,39.1 2.294011,48.856413,39.8 2.293902,48.856392,39.7 2.293794,48.856370,39.3 2.293685,48.856349,39.8 2.293577,48.856328,39.1 2.293468,48.856307,39.3 2.293359,48.856286,39.1 2.293251,48.856265,39.3 2.293142,48.856243,39.7 2.293034,48.856222,39.4 2.292925,48.856201,39.0 2.292916,48.856202,39.6 2.292907,48.856203,39.3 2.292898,48.856205,39.4 2.292889,48.856206,38.9 2.292880,48.856207,39.4 2.292871,48.856208,39.2 2.292862,48.856209,39.1 2.292853,48.856211,38.8 2.292845,48.856212,38.8 2.292836,48.856213,39.5 2.292827,48.856214,39.2 2.292818,48.856215,39.0 2.292899,48.856162,38.7 2.292980,48.856109,39.5 2.293061,48.856056,39.4 2.293142,48.856003,39.2 2.293223,48.855950,39.0 2.293305,48.855898,39.2 2.293386,48.855845,38.8 2.293467,48.855792,39.5 2.293548,48.855739,39.5 2.293629,48.855686,39.2 2.293710,48.855633,39.2 2.293791,48.855580,39.2 2.293873,48.855527,39.1 2.293954,48.855474,39.5 2.294035,48.855421,39.3 2.294116,48.855368,39.7 2.294197,48.855315,39.3 2.294278,48.855262,38.9 2.294360,48.855209,39.7 2.294441,48.855156,39.7 2.294522,48.855103,39.7 2.294603,48.855050,39.6 2.294684,48.854997,39.7 2.294765,48.854944,39.0 2.294846,48.854892,38.9 2.294928,48.854839,39.6 2.295009,48.854786,39.2 2.295090,48.854733,39.4 2.295171,48.854680,38.9 2.295252,48.854627,39.5 2.295333,48.854574,38.9 2.295414,48.854521,39.5 2.295335,48.854574,39.0 2.295255,48.854627,39.1 2.295176,48.854680,39.1 2.295096,48.854733,39.7 2.295017,48.854786,39.2 2.294938,48.854839,39.6 2.294858,48.854892,39.2 2.294779,48.854946,39.4 2.294699,48.854999,39.1 2.294620,48.855052,39.4 2.294540,48.855105,39.5 2.294461,48.855158,39.6 2.294381,48.855211,37.4 2.294302,48.855264,36.7 2.294222,48.855317,36.5 2.294143,48.855370,36.9 2.294063,48.855423,36.8 2.293984,48.855476,36.9 2.293904,48.855529,37.0 2.293825,48.855582,37.1 2.293745,48.855636,36.5 2.293666,48.855689,36.4 2.293586,48.855742,36.9 2.293507,48.855795,36.6 2.293427,48.855848,36.5 2.293348,48.855901,36.1 2.293268,48.855954,36.3 2.293189,48.856007,36.2 2.293109,48.856060,36.3 2.293030,48.856113,36.2 2.292950,48.856166,36.3 2.292871,48.856219,35.9 2.292791,48.856272,36.2 2.292712,48.856325,36.0 2.292632,48.856379,35.5 2.292553,48.856432,35.6 2.292474,48.856485,36.0 2.292394,48.856538,35.5 2.292315,48.856591,35.9 2.292235,48.856644,35.4 2.292156,48.856697,35.3 2.292076,48.856750,35.5 2.291997,48.856803,35.5 2.291917,48.856856,35.5 2.291838,48.856910,35.7 2.291758,48.856963,35.3 2.291679,48.857016,35.2 2.291599,48.857069,35.4 2.291520,48.857122,34.9 2.291440,48.857175,35.5 2.291361,48.857228,35.2 2.291281,48.857281,34.9 2.291202,48.857334,34.7 2.291122,48.857387,35.2 2.291121,48.857388,35.0 2.291119,48.857390,34.6 2.291117,48.857391,34.8 2.291115,48.857392,34.8 2.291113,48.857393,34.9 2.291112,48.857394,35.0 2.291110,48.857395,35.1 2.291108,48.857397,34.8 2.291106,48.857398,34.7 2.291104,48.857399,34.6 2.291103,48.857400,34.9 2.291101,48.857401,34.7</coordinates>
      </LineString>
    </Placemark>
  
    <Placemark>
      <TimeSpan><begin>2026-05-30T17:05:08.000Z</begin><end>2026-05-30T17:05:08.000Z</end></TimeSpan>
      <Point><coordinates>2.295672,48.860522,36.1</coordinates></Point>
    </Placemark>
    <Placemark>
      <TimeSpan><begin>2026-05-30T17:05:28.740Z</begin><end>2026-05-30T17:05:28.740Z</end></TimeSpan>
      <Point><coordinates>2.295661,48.860508,36.8</coordinates></Point>
    </Placemark>
    <Placemark>
      <TimeSpan><begin>2026-05-30T17:05:49.481Z</begin><end>2026-05-30T17:05:49.481Z</end></TimeSpan>
      <Point><coordinates>2.295650,48.860493,36.7</coordinates></Point>
    </Placemark>
    <Placemark>
      <TimeSpan><begin>2026-05-30T17:06:10.222Z</begin><end>2026-05-30T17:06:10.222Z</end></TimeSpan>
      <Point><coordinates>2.295640,48.860479,36.7</coordinates></Point>
    </Placemark>
    <Placemark>
      <TimeSpan><begin>2026-05-30T17:06:30.962Z</begin><end>2026-05-30T17:06:30.962Z</end></TimeSpan>
      <Point><coordinates>2.295629,48.860465,37.2</coordinates></Point>
    </Placemark>
    <Placemark>
      <TimeSpan><begin>2026-05-30T17:06:51.703Z</begin><end>2026-05-30T17:06:51.703Z</end></TimeSpan>
      <Point><coordinates>2.295875,48.860312,37.5</coordinates></Point>
    </Placemark>
    <Placemark>
      <TimeSpan><begin>2026-05-30T17:07:12.444Z</begin><end>2026-05-30T17:07:12.444Z</end></TimeSpan>
      <Point><coordinates>2.296122,48.860159,37.4</coordinates></Point>
    </Placemark>
    <Placemark>
      <TimeSpan><begin>2026-05-30T17:07:33.185Z</begin><end>2026-05-30T17:07:33.185Z</end></TimeSpan>
      <Point><coordinates>2.296368,48.860007,37.2</coordinates></Point>
    </Placemark>
    <Placemark>
      <TimeSpan><begin>2026-05-30T17:07:53.925Z</begin><end>2026-05-30T17:07:53.925Z</end></TimeSpan>
      <Point><coordinates>2.296614,48.859854,37.6</coordinates></Point>
    </Placemark>
    <Placemark>
      <TimeSpan><begin>2026-05-30T17:08:14.666Z</begin><end>2026-05-30T17:08:14.666Z</end></TimeSpan>
      <Point><coordinates>2.296861,48.859701,37.4</coordinates></Point>
    </Placemark>
    <Placemark>
      <TimeSpan><begin>2026-05-30T17:08:35.407Z</begin><end>2026-05-30T17:08:35.407Z</end></TimeSpan>
      <Point><coordinates>2.297107,48.859548,37.7</coordinates></Point>
    </Placemark>
    <Placemark>
      <TimeSpan><begin>2026-05-30T17:08:56.148Z</begin><end>2026-05-30T17:08:56.148Z</end></TimeSpan>
      <Point><coordinates>2.297353,48.859395,38.3</coordinates></Point>
    </Placemark>
    <Placemark>
      <TimeSpan><begin>2026-05-30T17:09:16.888Z</begin><end>2026-05-30T17:09:16.888Z</end></TimeSpan>
      <Point><coordinates>2.297598,48.859240,38.1</coordinates></Point>
    </Placemark>
    <Placemark>
      <TimeSpan><begin>2026-05-30T17:09:37.629Z</begin><end>2026-05-30T17:09:37.629Z</end></TimeSpan>
      <Point><coordinates>2.297839,48.859082,38.1</coordinates></Point>
    </Placemark>
    <Placemark>
      <TimeSpan><begin>2026-05-30T17:09:58.370Z</begin><end>2026-05-30T17:09:58.370Z</end></TimeSpan>
      <Point><coordinates>2.298081,48.858923,38.7</coordinates></Point>
    </Placemark>
    <Placemark>
      <TimeSpan><begin>2026-05-30T17:10:19.111Z</begin><end>2026-05-30T17:10:19.111Z</end></TimeSpan>
      <Point><coordinates>2.298322,48.858764,38.6</coordinates></Point>
    </Placemark>
    <Placemark>
      <TimeSpan><begin>2026-05-30T17:10:39.851Z</begin><end>2026-05-30T17:10:39.851Z</end></TimeSpan>
      <Point><coordinates>2.298564,48.858605,39.0</coordinates></Point>
    </Placemark>
    <Placemark>
      <TimeSpan><begin>2026-05-30T17:11:00.592Z</begin><end>2026-05-30T17:11:00.592Z</end></TimeSpan>
      <Point><coordinates>2.298805,48.858446,38.9</coordinates></Point>
    </Placemark>
    <Placemark>
      <TimeSpan><begin>2026-05-30T17:11:21.333Z</begin><end>2026-05-30T17:11:21.333Z</end></TimeSpan>
      <Point><coordinates>2.299046,48.858287,38.9</coordinates></Point>
    </Placemark>
    <Placemark>
      <TimeSpan><begin>2026-05-30T17:11:42.074Z</begin><end>2026-05-30T17:11:42.074Z</end></TimeSpan>
      <Point><coordinates>2.299288,48.858128,38.6</coordinates></Point>
    </Placemark>
    <Placemark>
      <TimeSpan><begin>2026-05-30T17:12:02.814Z</begin><end>2026-05-30T17:12:02.814Z</end></TimeSpan>
      <Point><coordinates>2.299529,48.857970,38.7</coordinates></Point>
    </Placemark>
    <Placemark>
      <TimeSpan><begin>2026-05-30T17:12:23.555Z</begin><end>2026-05-30T17:12:23.555Z</end></TimeSpan>
      <Point><coordinates>2.299771,48.857811,39.4</coordinates></Point>
    </Placemark>
    <Placemark>
      <TimeSpan><begin>2026-05-30T17:12:44.296Z</begin><end>2026-05-30T17:12:44.296Z</end></TimeSpan>
      <Point><coordinates>2.300012,48.857652,39.5</coordinates></Point>
    </Placemark>
    <Placemark>
      <TimeSpan><begin>2026-05-30T17:13:05.037Z</begin><end>2026-05-30T17:13:05.037Z</end></TimeSpan>
      <Point><coordinates>2.299876,48.857557,39.3</coordinates></Point>
    </Placemark>
    <Placemark>
      <TimeSpan><begin>2026-05-30T17:13:25.777Z</begin><end>2026-05-30T17:13:25.777Z</end></TimeSpan>
      <Point><coordinates>2.299550,48.857493,39.2</coordinates></Point>
    </Placemark>
    <Placemark>
      <TimeSpan><begin>2026-05-30T17:13:46.518Z</begin><end>2026-05-30T17:13:46.518Z</end></TimeSpan>
      <Point><coordinates>2.299224,48.857429,39.9</coordinates></Point>
    </Placemark>
    <Placemark>
      <TimeSpan><begin>2026-05-30T17:14:07.259Z</begin><end>2026-05-30T17:14:07.259Z</end></TimeSpan>
      <Point><coordinates>2.298898,48.857366,39.2</coordinates></Point>
    </Placemark>
    <Placemark>
      <TimeSpan><begin>2026-05-30T17:14:28.000Z</begin><end>2026-05-30T17:14:28.000Z</end></TimeSpan>
      <Point><coordinates>2.298572,48.857302,39.5</coordinates></Point>
    </Placemark>
    <Placemark>
      <TimeSpan><begin>2026-05-30T17:14:48.740Z</begin><end>2026-05-30T17:14:48.740Z</end></TimeSpan>
      <Point><coordinates>2.298247,48.857239,39.6</coordinates></Point>
    </Placemark>
    <Placemark>
      <TimeSpan><begin>2026-05-30T17:15:09.481Z</begin><end>2026-05-30T17:15:09.481Z</end></TimeSpan>
      <Point><coordinates>2.297921,48.857175,40.1</coordinates></Point>
    </Placemark>
    <Placemark>
      <TimeSpan><begin>2026-05-30T17:15:30.222Z</begin><end>2026-05-30T17:15:30.222Z</end></TimeSpan>
      <Point><coordinates>2.297595,48.857112,39.7</coordinates></Point>
    </Placemark>
    <Placemark>
      <TimeSpan><begin>2026-05-30T17:15:50.962Z</begin><end>2026-05-30T17:15:50.962Z</end></TimeSpan>
      <Point><coordinates>2.297269,48.857048,39.4</coordinates></Point>
    </Placemark>
    <Placemark>
      <TimeSpan><begin>2026-05-30T17:16:11.703Z</begin><end>2026-05-30T17:16:11.703Z</end></TimeSpan>
      <Point><coordinates>2.296943,48.856985,39.7</coordinates></Point>
    </Placemark>
    <Placemark>
      <TimeSpan><begin>2026-05-30T17:16:32.444Z</begin><end>2026-05-30T17:16:32.444Z</end></TimeSpan>
      <Point><coordinates>2.296617,48.856921,39.4</coordinates></Point>
    </Placemark>
    <Placemark>
      <TimeSpan><begin>2026-05-30T17:16:53.185Z</begin><end>2026-05-30T17:16:53.185Z</end></TimeSpan>
      <Point><coordinates>2.296292,48.856858,39.4</coordinates></Point>
    </Placemark>
    <Placemark>
      <TimeSpan><begin>2026-05-30T17:17:13.925Z</begin><end>2026-05-30T17:17:13.925Z</end></TimeSpan>
      <Point><coordinates>2.295966,48.856794,40.1</coordinates></Point>
    </Placemark>
    <Placemark>
      <TimeSpan><begin>2026-05-30T17:17:34.666Z</begin><end>2026-05-30T17:17:34.666Z</end></TimeSpan>
      <Point><coordinates>2.295640,48.856731,39.9</coordinates></Point>
    </Placemark>
    <Placemark>
      <TimeSpan><begin>2026-05-30T17:17:55.407Z</begin><end>2026-05-30T17:17:55.407Z</end></TimeSpan>
      <Point><coordinates>2.295314,48.856667,39.6</coordinates></Point>
    </Placemark>
    <Placemark>
      <TimeSpan><begin>2026-05-30T17:18:16.148Z</begin><end>2026-05-30T17:18:16.148Z</end></TimeSpan>
      <Point><coordinates>2.294988,48.856604,39.9</coordinates></Point>
    </Placemark>
    <Placemark>
      <TimeSpan><begin>2026-05-30T17:18:36.888Z</begin><end>2026-05-30T17:18:36.888Z</end></TimeSpan>
      <Point><coordinates>2.294663,48.856540,39.8</coordinates></Point>
    </Placemark>
    <Placemark>
      <TimeSpan><begin>2026-05-30T17:18:57.629Z</begin><end>2026-05-30T17:18:57.629Z</end></TimeSpan>
      <Point><coordinates>2.294337,48.856476,39.9</coordinates></Point>
    </Placemark>
    <Placemark>
      <TimeSpan><begin>2026-05-30T17:19:18.370Z</begin><end>2026-05-30T17:19:18.370Z</end></TimeSpan>
      <Point><coordinates>2.294011,48.856413,39.8</coordinates></Point>
    </Placemark>
    <Placemark>
      <TimeSpan><begin>2026-05-30T17:19:39.111Z</begin><end>2026-05-30T17:19:39.111Z</end></TimeSpan>
      <Point><coordinates>2.293685,48.856349,39.8</coordinates></Point>
    </Placemark>
    <Placemark>
      <TimeSpan><begin>2026-05-30T17:19:59.851Z</begin><end>2026-05-30T17:19:59.851Z</end></TimeSpan>
      <Point><coordinates>2.293359,48.856286,39.1</coordinates></Point>
    </Placemark>
    <Placemark>
      <TimeSpan><begin>2026-05-30T17:20:20.592Z</begin><end>2026-05-30T17:20:20.592Z</end></TimeSpan>
      <Point><coordinates>2.293034,48.856222,39.4</coordinates></Point>
    </Placemark>
    <Placemark>
      <TimeSpan><begin>2026-05-30T17:20:41.333Z</begin><end>2026-05-30T17:20:41.333Z</end></TimeSpan>
      <Point><coordinates>2.292907,48.856203,39.3</coordinates></Point>
    </Placemark>
    <Placemark>
      <TimeSpan><begin>2026-05-30T17:21:02.074Z</begin><end>2026-05-30T17:21:02.074Z</end></TimeSpan>
      <Point><coordinates>2.292880,48.856207,39.4</coordinates></Point>
    </Placemark>
    <Placemark>
      <TimeSpan><begin>2026-05-30T17:21:22.814Z</begin><end>2026-05-30T17:21:22.814Z</end></TimeSpan>
      <Point><coordinates>2.292853,48.856211,38.8</coordinates></Point>
    </Placemark>
    <Placemark>
      <TimeSpan><begin>2026-05-30T17:21:43.555Z</begin><end>2026-05-30T17:21:43.555Z</end></TimeSpan>
      <Point><coordinates>2.292827,48.856214,39.2</coordinates></Point>
    </Placemark>
    <Placemark>
      <TimeSpan><begin>2026-05-30T17:22:04.296Z</begin><end>2026-05-30T17:22:04.296Z</end></TimeSpan>
      <Point><coordinates>2.292980,48.856109,39.5</coordinates></Point>
    </Placemark>
    <Placemark>
      <TimeSpan><begin>2026-05-30T17:22:25.037Z</begin><end>2026-05-30T17:22:25.037Z</end></TimeSpan>
      <Point><coordinates>2.293223,48.855950,39.0</coordinates></Point>
    </Placemark>
    <Placemark>
      <TimeSpan><begin>2026-05-30T17:22:45.777Z</begin><end>2026-05-30T17:22:45.777Z</end></TimeSpan>
      <Point><coordinates>2.293467,48.855792,39.5</coordinates></Point>
    </Placemark>
    <Placemark>
      <TimeSpan><begin>2026-05-30T17:23:06.518Z</begin><end>2026-05-30T17:23:06.518Z</end></TimeSpan>
      <Point><coordinates>2.293710,48.855633,39.2</coordinates></Point>
    </Placemark>
    <Placemark>
      <TimeSpan><begin>2026-05-30T17:23:27.259Z</begin><end>2026-05-30T17:23:27.259Z</end></TimeSpan>
      <Point><coordinates>2.293954,48.855474,39.5</coordinates></Point>
    </Placemark>
    <Placemark>
      <TimeSpan><begin>2026-05-30T17:23:48.000Z</begin><end>2026-05-30T17:23:48.000Z</end></TimeSpan>
      <Point><coordinates>2.294197,48.855315,39.3</coordinates></Point>
    </Placemark>
    <Placemark>
      <TimeSpan><begin>2026-05-30T17:24:08.740Z</begin><end>2026-05-30T17:24:08.740Z</end></TimeSpan>
      <Point><coordinates>2.294441,48.855156,39.7</coordinates></Point>
    </Placemark>
    <Placemark>
      <TimeSpan><begin>2026-05-30T17:24:29.481Z</begin><end>2026-05-30T17:24:29.481Z</end></TimeSpan>
      <Point><coordinates>2.294684,48.854997,39.7</coordinates></Point>
    </Placemark>
    <Placemark>
      <TimeSpan><begin>2026-05-30T17:24:50.222Z</begin><end>2026-05-30T17:24:50.222Z</end></TimeSpan>
      <Point><coordinates>2.294928,48.854839,39.6</coordinates></Point>
    </Placemark>
    <Placemark>
      <TimeSpan><begin>2026-05-30T17:25:10.962Z</begin><end>2026-05-30T17:25:10.962Z</end></TimeSpan>
      <Point><coordinates>2.295171,48.854680,38.9</coordinates></Point>
    </Placemark>
    <Placemark>
      <TimeSpan><begin>2026-05-30T17:25:31.703Z</begin><end>2026-05-30T17:25:31.703Z</end></TimeSpan>
      <Point><coordinates>2.295414,48.854521,39.5</coordinates></Point>
    </Placemark>
    <Placemark>
      <TimeSpan><begin>2026-05-30T17:25:52.444Z</begin><end>2026-05-30T17:25:52.444Z</end></TimeSpan>
      <Point><coordinates>2.295176,48.854680,39.1</coordinates></Point>
    </Placemark>
    <Placemark>
      <TimeSpan><begin>2026-05-30T17:26:13.185Z</begin><end>2026-05-30T17:26:13.185Z</end></TimeSpan>
      <Point><coordinates>2.294938,48.854839,39.6</coordinates></Point>
    </Placemark>
    <Placemark>
      <TimeSpan><begin>2026-05-30T17:26:33.925Z</begin><end>2026-05-30T17:26:33.925Z</end></TimeSpan>
      <Point><coordinates>2.294699,48.854999,39.1</coordinates></Point>
    </Placemark>
    <Placemark>
      <TimeSpan><begin>2026-05-30T17:26:54.666Z</begin><end>2026-05-30T17:26:54.666Z</end></TimeSpan>
      <Point><coordinates>2.294461,48.855158,39.6</coordinates></Point>
    </Placemark>
    <Placemark>
      <TimeSpan><begin>2026-05-30T17:27:15.407Z</begin><end>2026-05-30T17:27:15.407Z</end></TimeSpan>
      <Point><coordinates>2.294222,48.855317,36.5</coordinates></Point>
    </Placemark>
    <Placemark>
      <TimeSpan><begin>2026-05-30T17:27:36.148Z</begin><end>2026-05-30T17:27:36.148Z</end></TimeSpan>
      <Point><coordinates>2.293984,48.855476,36.9</coordinates></Point>
    </Placemark>
    <Placemark>
      <TimeSpan><begin>2026-05-30T17:27:56.888Z</begin><end>2026-05-30T17:27:56.888Z</end></TimeSpan>
      <Point><coordinates>2.293745,48.855636,36.5</coordinates></Point>
    </Placemark>
    <Placemark>
      <TimeSpan><begin>2026-05-30T17:28:17.629Z</begin><end>2026-05-30T17:28:17.629Z</end></TimeSpan>
      <Point><coordinates>2.293507,48.855795,36.6</coordinates></Point>
    </Placemark>
    <Placemark>
      <TimeSpan><begin>2026-05-30T17:28:38.370Z</begin><end>2026-05-30T17:28:38.370Z</end></TimeSpan>
      <Point><coordinates>2.293268,48.855954,36.3</coordinates></Point>
    </Placemark>
    <Placemark>
      <TimeSpan><begin>2026-05-30T17:28:59.111Z</begin><end>2026-05-30T17:28:59.111Z</end></TimeSpan>
      <Point><coordinates>2.293030,48.856113,36.2</coordinates></Point>
    </Placemark>
    <Placemark>
      <TimeSpan><begin>2026-05-30T17:29:19.851Z</begin><end>2026-05-30T17:29:19.851Z</end></TimeSpan>
      <Point><coordinates>2.292791,48.856272,36.2</coordinates></Point>
    </Placemark>
    <Placemark>
      <TimeSpan><begin>2026-05-30T17:29:40.592Z</begin><end>2026-05-30T17:29:40.592Z</end></TimeSpan>
      <Point><coordinates>2.292553,48.856432,35.6</coordinates></Point>
    </Placemark>
    <Placemark>
      <TimeSpan><begin>2026-05-30T17:30:01.333Z</begin><end>2026-05-30T17:30:01.333Z</end></TimeSpan>
      <Point><coordinates>2.292315,48.856591,35.9</coordinates></Point>
    </Placemark>
    <Placemark>
      <TimeSpan><begin>2026-05-30T17:30:22.074Z</begin><end>2026-05-30T17:30:22.074Z</end></TimeSpan>
      <Point><coordinates>2.292076,48.856750,35.5</coordinates></Point>
    </Placemark>
    <Placemark>
      <TimeSpan><begin>2026-05-30T17:30:42.814Z</begin><end>2026-05-30T17:30:42.814Z</end></TimeSpan>
      <Point><coordinates>2.291838,48.856910,35.7</coordinates></Point>
    </Placemark>
    <Placemark>
      <TimeSpan><begin>2026-05-30T17:31:03.555Z</begin><end>2026-05-30T17:31:03.555Z</end></TimeSpan>
      <Point><coordinates>2.291599,48.857069,35.4</coordinates></Point>
    </Placemark>
    <Placemark>
      <TimeSpan><begin>2026-05-30T17:31:24.296Z</begin><end>2026-05-30T17:31:24.296Z</end></TimeSpan>
      <Point><coordinates>2.291361,48.857228,35.2</coordinates></Point>
    </Placemark>
    <Placemark>
      <TimeSpan><begin>2026-05-30T17:31:45.037Z</begin><end>2026-05-30T17:31:45.037Z</end></TimeSpan>
      <Point><coordinates>2.291122,48.857387,35.2</coordinates></Point>
    </Placemark>
    <Placemark>
      <TimeSpan><begin>2026-05-30T17:32:05.777Z</begin><end>2026-05-30T17:32:05.777Z</end></TimeSpan>
      <Point><coordinates>2.291117,48.857391,34.8</coordinates></Point>
    </Placemark>
    <Placemark>
      <TimeSpan><begin>2026-05-30T17:32:26.518Z</begin><end>2026-05-30T17:32:26.518Z</end></TimeSpan>
      <Point><coordinates>2.291112,48.857394,35.0</coordinates></Point>
    </Placemark>
    <Placemark>
      <TimeSpan><begin>2026-05-30T17:32:47.259Z</begin><end>2026-05-30T17:32:47.259Z</end></TimeSpan>
      <Point><coordinates>2.291106,48.857398,34.7</coordinates></Point>
    </Placemark>
    <Placemark>
      <TimeSpan><begin>2026-05-30T17:33:08.000Z</begin><end>2026-05-30T17:33:08.000Z</end></TimeSpan>
      <Point><coordinates>2.291101,48.857401,34.7</coordinates></Point>
    </Placemark></Document>
</kml>